ONEWEB-0082             
1 45452U 20020AE  25361.20768808  .00000191  00000+0  50447-3 0  9993
2 45452  87.8861  55.2870 0001934  95.1194 265.0155 13.11418209280131
ONEWEB-0050             
1 45453U 20020AF  25361.21771442  .00003513  00000+0  36559-3 0  9992
2 45453  88.9230 256.6687 0001627 171.5938 188.5318 14.89647170314776
ONEWEB-0034             
1 45454U 20020AG  25361.22888483  .00000507  00000+0  13951-2 0  9998
2 45454  87.8848  55.2951 0001789  99.5775 260.5555 13.11416260280059
ONEWEB-0060             
1 45455U 20020AH  25361.20003843 -.00000127  00000+0 -39440-3 0  9998
2 45455  87.8842  55.3172 0002587  82.2589 277.8832 13.11416702280004
ONEWEB-0086             
1 45456U 20020AJ  25361.17885415 -.00000395  00000+0 -11494-2 0  9993
2 45456  87.8850  55.3023 0001895  77.7911 282.3429 13.11415363280069
ONEWEB-0088             
1 45457U 20020AK  25361.15683975  .00000403  00000+0  11022-2 0  9994
2 45457  87.8860  55.2632 0002006 107.2169 252.9178 13.11415962279994
ONEWEB-0102             
1 47258U 20100A   25360.99043132  .00000422  00000+0  11389-2 0  9997
2 47258  87.8922  24.8861 0001668  91.9867 268.1452 13.12441968242144
ONEWEB-0109             
1 47259U 20100B   25361.15138776  .00000207  00000+0  53883-3 0  9993
2 47259  87.8928  24.8235 0001640  91.9047 268.2270 13.12440803241994
ONEWEB-0110             
1 47260U 20100C   25361.10226057 -.00000343  00000+0 -98915-3 0  9998
2 47260  87.8930  24.8180 0001854  86.5917 273.5424 13.12442383242155
ONEWEB-0111             
1 47261U 20100D   25361.13279519  .00000305  00000+0  81244-3 0  9996
2 47261  87.8928  24.8298 0001927  91.8472 268.2877 13.12452273241992
ONEWEB-0114             
1 47262U 20100E   25361.08700809 -.00000114  00000+0 -35316-3 0  9991
2 47262  87.8932  24.8335 0001460 101.2410 258.8882 13.12441765241940
ONEWEB-0117             
1 47263U 20100F   25361.15477405  .00000154  00000+0  39221-3 0  9994
2 47263  87.8929  24.8168 0001771  92.7834 267.3497 13.12440484241966
ONEWEB-0118             
1 47264U 20100G   25361.11242559 -.00000168  00000+0 -50347-3 0  9990
2 47264  87.8927  24.8255 0001711 106.9394 253.1922 13.12441817242154
ONEWEB-0119             
1 47265U 20100H   25361.06158504  .00000465  00000+0  12567-2 0  9990
2 47265  87.8919  24.8681 0001737  91.1424 268.9904 13.12443516242125
ONEWEB-0120             
1 47266U 20100J   25361.16168087 -.00000089  00000+0 -28383-3 0  9997
2 47266  87.8919  24.8494 0001657  94.6493 265.4824 13.12440808242161
ONEWEB-0121             
1 47267U 20100K   25361.14968486  .00000264  00000+0  69733-3 0  9994
2 47267  87.8927  24.8217 0001873  87.2764 272.8579 13.12441813242079
